[{"OBJECT_NAME":"ONEWEB-0329","OBJECT_ID":"2021-075AJ","EPOCH":"2026-03-09T22:23:54.917664","MEAN_MOTION":13.17648612,"ECCENTRICITY":0.00018946,"INCLINATION":87.9151,"RA_OF_ASC_NODE":25.578,"ARG_OF_PERICENTER":75.9962,"MEAN_ANOMALY":284.138,"EPHEMERIS_TYPE":0,"CLASSIFICATION_TYPE":"U","NORAD_CAT_ID":49107,"ELEMENT_SET_NO":999,"REV_AT_EPOCH":22051,"BSTAR":-3.090357e-5,"MEAN_MOTION_DOT":1.0e-8,"MEAN_MOTION_DDOT":0},{"OBJECT_NAME":"FENGYUN 1C DEB","OBJECT_ID":"1999-025EFD","EPOCH":"2026-02-27T01:49:23.401056","MEAN_MOTION":13.38320839,"ECCENTRICITY":0.04274495,"INCLINATION":95.8479,"RA_OF_ASC_NODE":1.295,"ARG_OF_PERICENTER":50.3714,"MEAN_ANOMALY":313.4343,"EPHEMERIS_TYPE":0,"CLASSIFICATION_TYPE":"U","NORAD_CAT_ID":37069,"ELEMENT_SET_NO":999,"REV_AT_EPOCH":88729,"BSTAR":0.0041283344,"MEAN_MOTION_DOT":3.704e-5,"MEAN_MOTION_DDOT":0}]
